M2 PATHFINDER           
1 45727U 20037E   26068.47969609  .00004468  00000+0  32592-3 0  9994
2 45727  97.8158 258.5983 0012405 127.8041 232.4310 15.04175941310501
STARLINK-34743          
1 64937U 25158F   26068.61289008  .00006512  00000+0  45516-3 0  9993
2 64937  97.6015 294.0011 0002568  68.4044 291.7456 15.05642869 35348
