[{"OBJECT_NAME":"M2 PATHFINDER","OBJECT_ID":"2020-037E","EPOCH":"2026-03-09T11:30:45.742176","MEAN_MOTION":15.04175941,"ECCENTRICITY":0.00124059,"INCLINATION":97.8158,"RA_OF_ASC_NODE":258.5983,"ARG_OF_PERICENTER":127.8041,"MEAN_ANOMALY":232.431,"EPHEMERIS_TYPE":0,"CLASSIFICATION_TYPE":"U","NORAD_CAT_ID":45727,"ELEMENT_SET_NO":999,"REV_AT_EPOCH":31050,"BSTAR":0.00032591881,"MEAN_MOTION_DOT":4.468e-5,"MEAN_MOTION_DDOT":0},{"OBJECT_NAME":"STARLINK-34743","OBJECT_ID":"2025-158F","EPOCH":"2026-03-09T14:42:33.702912","MEAN_MOTION":15.05642869,"ECCENTRICITY":0.0002568,"INCLINATION":97.6015,"RA_OF_ASC_NODE":294.0011,"ARG_OF_PERICENTER":68.4044,"MEAN_ANOMALY":291.7456,"EPHEMERIS_TYPE":0,"CLASSIFICATION_TYPE":"U","NORAD_CAT_ID":64937,"ELEMENT_SET_NO":999,"REV_AT_EPOCH":3534,"BSTAR":0.00045516,"MEAN_MOTION_DOT":6.512e-5,"MEAN_MOTION_DDOT":0}]
